[{"OBJECT_NAME":"OBJECT A","OBJECT_ID":"2024-203A","EPOCH":"2026-03-09T23:31:20.812800","MEAN_MOTION":15.27300571,"ECCENTRICITY":0.00108989,"INCLINATION":97.4288,"RA_OF_ASC_NODE":139.5608,"ARG_OF_PERICENTER":322.6893,"MEAN_ANOMALY":37.3588,"EPHEMERIS_TYPE":0,"CLASSIFICATION_TYPE":"U","NORAD_CAT_ID":61869,"ELEMENT_SET_NO":999,"REV_AT_EPOCH":7380,"BSTAR":0.00061472876,"MEAN_MOTION_DOT":0.00016411,"MEAN_MOTION_DDOT":0},{"OBJECT_NAME":"STARLINK-36102","OBJECT_ID":"2025-281B","EPOCH":"2026-03-09T16:00:03.000096","MEAN_MOTION":15.27548752,"ECCENTRICITY":0.00017022,"INCLINATION":43.0042,"RA_OF_ASC_NODE":343.8058,"ARG_OF_PERICENTER":272.8951,"MEAN_ANOMALY":305.2793,"EPHEMERIS_TYPE":0,"CLASSIFICATION_TYPE":"U","NORAD_CAT_ID":66849,"ELEMENT_SET_NO":999,"REV_AT_EPOCH":577,"BSTAR":0.0015469241,"MEAN_MOTION_DOT":0.00042511,"MEAN_MOTION_DDOT":0}]
